{"spkid": "20875236", "covariance": {"elements": [{"sigma": 2.08580363523988e-07, "name": "e", "units": null, "title": "eccentricity", "value": ".4913237256280502", "label": "e"}, {"units": "au", "title": "perihelion distance", "value": ".4818696128326607", "sigma": 1.98317984357967e-07, "name": "q", "label": "q"}, {"units": "TDB", "title": "time of perihelion passage", "value": "2459180.962348531463", "sigma": 1.75067012139531e-05, "name": "tp", "label": "tp"}, {"label": "node", "sigma": 0.000184246020765012, "name": "om", "title": "longitude of the ascending node", "value": "327.1139217474247", "units": "deg"}, {"units": "deg", "value": "262.5479201044332", "title": "argument of perihelion", "sigma": 0.000168981516889435, "name": "w", "label": "peri"}, {"name": "i", "sigma": 1.14559471044663e-05, "units": "deg", "title": "inclination", "value": "3.941092003707545", "label": "i"}], "data": [["4.350576804779888E-14", "-4.136515192576044E-14", "-1.781648447177326E-12", "-2.393697780393061E-11", "1.922638162790826E-11", "-6.322650478458411E-13"], ["-4.136515192576044E-14", "3.933002291980678E-14", "1.690614220160804E-12", "2.272207966911923E-11", "-1.824543878387754E-11", "5.990671921838811E-13"], ["-1.781648447177326E-12", "1.690614220160804E-12", "3.064845873946283E-10", "1.601982764186642E-9", "-1.271782820531995E-9", "3.531176865063963E-11"], ["-2.393697780393061E-11", "2.272207966911923E-11", "1.601982764186642E-9", "3.394659616774127E-8", "-3.095328784859139E-8", "1.851386391296989E-9"], ["1.922638162790826E-11", "-1.824543878387754E-11", "-1.271782820531995E-9", "-3.095328784859139E-8", "2.855475305025457E-8", "-1.774647023162146E-9"], ["-6.322650478458411E-13", "5.990671921838811E-13", "3.531176865063963E-11", "1.851386391296989E-9", "-1.774647023162146E-9", "1.312387240603302E-10"]], "labels": ["e", "q", "tp", "node", "peri", "i"], "epoch": "2459258.5"}, "elements": [{"title": "eccentricity", "value": ".4913372093110192", "units": null, "sigma": "2.0853E-7", "name": "e", "label": "e"}, {"label": "a", "sigma": "1.57E-9", "name": "a", "title": "semi-major axis", "value": ".9470247126372641", "units": "au"}, {"value": ".4817162331815008", "title": "perihelion distance", "units": "au", "name": "q", "sigma": "1.981E-7", "label": "q"}, {"label": "i", "name": "i", "sigma": "1.145E-5", "value": "3.938815452872695", "title": "inclination; angle with respect to x-y ecliptic plane", "units": "deg"}, {"label": "node", "units": "deg", "value": "327.0444162598891", "title": "longitude of the ascending node", "name": "om", "sigma": ".00018445"}, {"label": "peri", "name": "w", "sigma": ".00016924", "value": "262.6223475206659", "title": "argument of perihelion", "units": "deg"}, {"label": "M", "title": "mean anomaly", "value": "359.1713496094767", "units": "deg", "sigma": "2.035E-5", "name": "ma"}, {"label": "tp", "units": "TDB", "value": "2461201.274835006461", "title": "time of perihelion passage", "sigma": "1.9029E-5", "name": "tp"}, {"units": "d", "value": "336.620371529418", "title": "sidereal orbital period", "sigma": "8.3708E-7", "name": "per", "label": "period"}, {"label": "n", "units": "deg/d", "title": "mean motion", "value": "1.069453991641557", "sigma": "2.6594E-9", "name": "n"}, {"label": "Q", "name": "ad", "sigma": "2.3414E-9", "title": "aphelion distance", "value": "1.412333192093027", "units": "au"}], "epoch": "2461200.5"}